NORAD_CAT_ID,OBJECT_NAME,OBJECT_TYPE,EPOCH,MEAN_MOTION,ECCENTRICITY,INCLINATION,RA_OF_ASC_NODE,ARG_OF_PERICENTER,MEAN_ANOMALY,BSTAR,MEAN_MOTION_DOT,MEAN_MOTION_DDOT,TLE_LINE0,TLE_LINE1,TLE_LINE2,SEMIMAJOR_AXIS,PERIOD,APOGEE,PERIGEE,DECAYED
53164.0,STARLINK-4116,PAYLOAD,2022-12-26 08:46:07,15.08766209,0.0002979,53.2199,13.4215,38.3284,321.7919,0.00094877,0.00014814,0.0,0 STARLINK-4116,1 53164U 22083AJ  22360.36536973  .00014814  00000-0  94877-3 0  9995,2 53164  53.2199  13.4215 0002979  38.3284 321.7919 15.08766209 24834,6918.106,95.442,542.0319999999998,537.91,0.0
53164.0,STARLINK-4116,PAYLOAD,2022-12-27 07:01:29,15.08844951,0.0002622,53.2201,9.257,34.9111,325.2053,0.00010102,1.32e-05,0.0,0 STARLINK-4116,1 53164U 22083AJ  22361.29270452  .00001320  00000-0  10102-3 0  9992,2 53164  53.2201   9.2570 0002622  34.9111 325.2053 15.08844951 25606,6917.865,95.437,541.544,537.9159999999998,0.0
53164.0,STARLINK-4116,PAYLOAD,2022-12-27 11:47:38,15.08850148,0.0002457,53.2205,8.3653,37.4144,322.7019,0.00010462,1.378e-05,0.0,0 STARLINK-4116,1 53164U 22083AJ  22361.49142052  .00001378  00000-0  10462-3 0  9990,2 53164  53.2205   8.3653 0002457  37.4144 322.7019 15.08850148 25005,6917.849,95.437,541.414,538.015,0.0
53164.0,STARLINK-4116,PAYLOAD,2022-12-27 18:09:11,15.08847,0.0002681,53.2207,7.1766,35.3258,324.7911,0.00015059,2.11e-05,0.0,0 STARLINK-4116,1 53164U 22083AJ  22361.75638060  .00002110  00000-0  15059-3 0  9990,2 53164  53.2207   7.1766 0002681  35.3258 324.7911 15.08847000 25041,6917.859,95.437,541.5790000000002,537.869,0.0
53164.0,STARLINK-4116,PAYLOAD,2022-12-28 00:30:43,15.08842458,0.0002767,53.2199,5.9873,32.9281,327.1883,0.00022819,3.345e-05,0.0,0 STARLINK-4116,1 53164U 22083AJ  22362.02133885  .00003345  00000-0  22819-3 0  9999,2 53164  53.2199   5.9873 0002767  32.9281 327.1883 15.08842458 25081,6917.873000000001,95.437,541.6519999999998,537.8240000000002,0.0
53164.0,STARLINK-4116,PAYLOAD,2022-12-29 00:21:31,15.0883797,0.0002669,53.2211,1.526,34.778,325.3386,-9.7678e-05,-1.843e-05,0.0,0 STARLINK-4116,1 53164U 22083AJ  22363.01495235 -.00001843  00000-0 -97678-4 0  9998,2 53164  53.2211   1.5260 0002669  34.7780 325.3386 15.08837970 25860,6917.887,95.438,541.5980000000002,537.905,0.0
53164.0,STARLINK-4116,PAYLOAD,2022-12-29 09:53:51,15.08830833,0.0002738,53.2201,359.7433,35.2752,324.8421,-0.00014267,-2.558e-05,0.0,0 STARLINK-4116,1 53164U 22083AJ  22363.41239956 -.00002558  00000-0 -14267-3 0  9994,2 53164  53.2201 359.7433 0002738  35.2752 324.8421 15.08830833 25923,6917.908,95.438,541.668,537.879,0.0
53164.0,STARLINK-4116,PAYLOAD,2022-12-30 06:33:52,15.08833754,0.0002634999999999,53.2191,355.8769,29.0675,331.0463,-6.7179e-05,-1.357e-05,0.0,0 STARLINK-4116,1 53164U 22083AJ  22364.27352145 -.00001357  00000-0 -67179-4 0  9992,2 53164  53.2191 355.8769 0002635  29.0675 331.0463 15.08833754 25427,6917.899,95.438,541.587,537.942,0.0
53164.0,STARLINK-4116,PAYLOAD,2022-12-30 16:06:10,15.08845696,0.0002622,53.2194,354.0926,30.0204,330.0938,3.3100000000000005e-05,2.38e-06,0.0,0 STARLINK-4116,1 53164U 22083AJ  22364.67095214  .00000238  00000-0  33100-4 0  9999,2 53164  53.2194 354.0926 0002622  30.0204 330.0938 15.08845696 26113,6917.863,95.437,541.5419999999998,537.914,0.0
53164.0,STARLINK-4116,PAYLOAD,2022-12-31 03:13:51,15.08850788,0.0002631999999999,53.2195,352.01199999999994,34.6904,325.4259,0.00030393,4.554e-05,0.0,0 STARLINK-4116,1 53164U 22083AJ  22365.13462195  .00004554  00000-0  30393-3 0  9992,2 53164  53.2195 352.0120 0002632  34.6904 325.4259 15.08850788 26185,6917.847,95.437,541.533,537.8919999999998,0.0
53164.0,STARLINK-4116,PAYLOAD,2022-12-31 08:00:00,15.08854822,0.0002614,53.2192,351.1199,29.3777,330.7362,0.00033894,5.112e-05,0.0,0 STARLINK-4116,1 53164U 22083AJ  22365.33333885  .00005112  00000-0  33894-3 0  9997,2 53164  53.2192 351.1199 0002614  29.3777 330.7362 15.08854822 25587,6917.835,95.437,541.508,537.8919999999998,0.0
53164.0,STARLINK-4116,PAYLOAD,2022-12-31 15:56:56,15.08844984,0.0002713,53.2194,349.6323,29.3104,330.8040000000001,0.0002595,3.845e-05,0.0,0 STARLINK-4116,1 53164U 22083AJ  22365.66454704  .00003845  00000-0  25950-3 0  9992,2 53164  53.2194 349.6323 0002713  29.3104 330.8040 15.08844984 25632,6917.865,95.437,541.607,537.8530000000002,0.0
53164.0,STARLINK-4116,PAYLOAD,2023-01-01 07:50:50,15.08826131,0.0002609,53.2198,346.6599,28.7943,331.3193,-4.4934e-05,-1.003e-05,0.0,0 STARLINK-4116,1 53164U 22083AJ  23001.32696797 -.00001003  00000-0 -44934-4 0  9993,2 53164  53.2198 346.6599 0002609  28.7943 331.3193 15.08826131 26366,6917.9230000000025,95.438,541.5930000000002,537.9830000000002,0.0
53164.0,STARLINK-4116,PAYLOAD,2023-01-01 15:47:46,15.0882247,0.0002581,53.2196,345.1727,28.8944,331.219,-0.0001216,-2.222e-05,0.0,0 STARLINK-4116,1 53164U 22083AJ  23001.65817542 -.00002222  00000-0 -12160-3 0  9991,2 53164  53.2196 345.1727 0002581  28.8944 331.2190 15.08822470 25785,6917.934,95.439,541.5840000000002,538.013,0.0
53164.0,STARLINK-4116,PAYLOAD,2023-01-02 09:16:59,15.08844148,0.0002588,53.2192,341.9013,28.7262,331.3872,-0.00013043,-2.364e-05,0.0,0 STARLINK-4116,1 53164U 22083AJ  23002.38680314 -.00002364  00000-0 -13043-3 0  9995,2 53164  53.2192 341.9013 0002588  28.7262 331.3872 15.08844148 26529,6917.868,95.437,541.523,537.942,0.0
53164.0,STARLINK-4116,PAYLOAD,2023-01-03 07:32:23,15.08840719,0.0002587,53.2191,337.7389,29.9171,330.1968,0.00043824,6.693e-05,0.0,0 STARLINK-4116,1 53164U 22083AJ  23003.31416366  .00006693  00000-0  43824-3 0  9990,2 53164  53.2191 337.7389 0002587  29.9171 330.1968 15.08840719 26037,6917.878000000002,95.438,541.533,537.9540000000002,0.0
53164.0,STARLINK-4116,PAYLOAD,2023-01-03 15:29:19,15.08839689,0.00026,53.2192,336.2521,30.0181,330.0959,0.00035575,5.378e-05,0.0,0 STARLINK-4116,1 53164U 22083AJ  23003.64536610  .00005378  00000-0  35575-3 0  9994,2 53164  53.2192 336.2521 0002600  30.0181 330.0959 15.08839689 26718,6917.880999999999,95.438,541.545,537.948,0.0
53164.0,STARLINK-4116,PAYLOAD,2023-01-04 07:23:10,15.08852139,0.0002469,53.2202,333.2784,18.8733,341.235,0.00031884,4.791e-05,0.0,0 STARLINK-4116,1 53164U 22083AJ  23004.30776121  .00004791  00000-0  31884-3 0  9998,2 53164  53.2202 333.2784 0002469  18.8733 341.2350 15.08852139 26183,6917.843000000003,95.437,541.4159999999998,538.0,0.0
53164.0,STARLINK-4116,PAYLOAD,2023-01-04 15:20:05,15.08854584,0.0002290999999999,53.2206,331.7917,19.3662,340.7417,0.00033871,5.109e-05,0.0,0 STARLINK-4116,1 53164U 22083AJ  23004.63895761  .00005109  00000-0  33871-3 0  9998,2 53164  53.2206 331.7917 0002291  19.3662 340.7417 15.08854584 26238,6917.8359999999975,95.437,541.286,538.116,0.0
53164.0,STARLINK-4116,PAYLOAD,2023-01-05 04:03:10,15.08859055,0.0002481999999999,53.2204,329.4132,22.2186,337.8913,0.00035662,5.395e-05,0.0,0 STARLINK-4116,1 53164U 22083AJ  23005.16887239  .00005395  00000-0  35662-3 0  9995,2 53164  53.2204 329.4132 0002482  22.2186 337.8913 15.08859055 26949,6917.821999999999,95.436,541.404,537.97,0.0
53164.0,STARLINK-4116,PAYLOAD,2023-01-05 07:13:56,15.08864695,0.0002526999999999,53.2198,328.8172,27.8277,332.285,0.00042704,6.519e-05,0.0,0 STARLINK-4116,1 53164U 22083AJ  23005.30134875  .00006519  00000-0  42704-3 0  9996,2 53164  53.2198 328.8172 0002527  27.8277 332.2850 15.08864695 26338,6917.805,95.436,541.418,537.922,0.0
53164.0,STARLINK-4116,PAYLOAD,2023-01-06 07:04:43,15.08838582,0.0002772,53.2203,324.3585,19.6891,340.4208,-0.00020314,-3.52e-05,0.0,0 STARLINK-4116,1 53164U 22083AJ  23006.29494870 -.00003520  00000-0 -20314-3 0  9993,2 53164  53.2203 324.3585 0002772  19.6891 340.4208 15.08838582 27118,6917.885,95.438,541.6669999999998,537.832,0.0
53164.0,STARLINK-4116,PAYLOAD,2023-01-06 21:23:12,15.08834267,0.0002448,53.2194,321.6824,22.2749,337.8349,-0.00022379,-3.848e-05,0.0,0 STARLINK-4116,1 53164U 22083AJ  23006.89111123 -.00003848  00000-0 -22379-3 0  9992,2 53164  53.2194 321.6824 0002448  22.2749 337.8349 15.08834267 26576,6917.898,95.438,541.456,538.069,0.0
53164.0,STARLINK-4116,PAYLOAD,2023-01-07 05:20:07,15.0884654,0.0002502,53.2191,320.1953,26.9043,333.2078,0.0002895,4.323e-05,0.0,0 STARLINK-4116,1 53164U 22083AJ  23007.22231007  .00004323  00000-0  28950-3 0  9992,2 53164  53.2191 320.1953 0002502  26.9043 333.2078 15.08846540 26621,6917.86,95.437,541.456,537.995,0.0
53164.0,STARLINK-4116,PAYLOAD,2023-01-07 06:55:30,15.08845428,0.0002469,53.2193,319.8982,26.3081,333.8036,0.00066613,0.00010331,0.0,0 STARLINK-4116,1 53164U 22083AJ  23007.28855239  .00010331  00000-0  66613-3 0  9991,2 53164  53.2193 319.8982 0002469  26.3081 333.8036 15.08845428 27263,6917.864000000001,95.437,541.437,538.021,0.0
53164.0,STARLINK-4116,PAYLOAD,2023-01-07 13:17:03,15.08826764,0.0002781,53.2195,318.7078,34.3206,325.7965,0.00038557,5.851e-05,0.0,0 STARLINK-4116,1 53164U 22083AJ  23007.55351512  .00005851  00000-0  38557-3 0  9993,2 53164  53.2195 318.7078 0002781  34.3206 325.7965 15.08826764 27302,6917.920999999999,95.438,541.71,537.862,0.0
53164.0,STARLINK-4116,PAYLOAD,2023-01-07 21:14:00,15.08831952,0.0003083,53.2195,317.222,38.9383,321.183,0.00029432,4.398e-05,0.0,0 STARLINK-4116,1 53164U 22083AJ  23007.88472388  .00004398  00000-0  29432-3 0  9991,2 53164  53.2195 317.2220 0003083  38.9383 321.1830 15.08831952 26728,6917.905,95.438,541.903,537.637,0.0
53164.0,STARLINK-4116,PAYLOAD,2023-01-08 03:35:32,15.08828811,0.0002676,53.2193,316.0331,42.1315,317.9882,0.00013547,1.868e-05,0.0,0 STARLINK-4116,1 53164U 22083AJ  23008.14968606  .00001868  00000-0  13547-3 0  9993,2 53164  53.2193 316.0331 0002676  42.1315 317.9882 15.08828811 27399,6917.915,95.438,541.631,537.928,0.0
53164.0,STARLINK-4116,PAYLOAD,2023-01-08 13:07:51,15.08838055,0.0002656,53.2194,314.2493,41.1507,318.9685,0.00037319,5.656e-05,0.0,0 STARLINK-4116,1 53164U 22083AJ  23008.54712702  .00005656  00000-0  37319-3 0  9993,2 53164  53.2194 314.2493 0002656  41.1507 318.9685 15.08838055 26829,6917.886,95.438,541.589,537.914,0.0
